{"type": "FeatureCollection", "features": [ {"type": "Feature", "properties": {"norad_id": 36273, "name": "FENGYUN 1C DEB", "group": "fengyun-1c-debris", "lat": 45.94627003501824, "lon": -152.76060899662633, "alt_km": 798.7523453554495, "timestamp": "2025-12-13T18:50:04.719649+00:00", "meta": {"OBJECT_NAME": "FENGYUN 1C DEB", "OBJECT_ID": "1999-025DXA", "EPOCH": "2025-12-10T21:07:00.418080", "MEAN_MOTION": 14.16564043, "ECCENTRICITY": 0.0096501, "INCLINATION": 99.6045, "RA_OF_ASC_NODE": 214.1863, "ARG_OF_PERICENTER": 353.8475, "MEAN_ANOMALY": 6.1504, "EPHEMERIS_TYPE": 0, "CLASSIFICATION_TYPE": "U", "NORAD_CAT_ID": 36273, "ELEMENT_SET_NO": 999, "REV_AT_EPOCH": 66207, "BSTAR": 0.00042955, "MEAN_MOTION_DOT": 8.45e-06, "MEAN_MOTION_DDOT": 0}, "tle": {"line1": "1 36273U 99025DXA 25344.87986595  .00000845  00000+0  42955-3 0  9995", "line2": "2 36273  99.6045 214.1863 0096501 353.8475   6.1504 14.16564043662078"}}, "geometry": {"type": "Point", "coordinates": [-152.76060899662633, 45.94627003501824]}}, {"type": "Feature", "properties": {"norad_id": 36274, "name": "FENGYUN 1C DEB", "group": "fengyun-1c-debris", "lat": 79.83588994934657, "lon": -1.8985383305902368, "alt_km": 841.1305210343671, "timestamp": "2025-12-13T18:50:04.719660+00:00", "meta": {"OBJECT_NAME": "FENGYUN 1C DEB", "OBJECT_ID": "1999-025DXB", "EPOCH": "2025-12-09T11:35:55.514688", "MEAN_MOTION": 14.23402311, "ECCENTRICITY": 0.00622561, "INCLINATION": 99.139, "RA_OF_ASC_NODE": 57.5181, "ARG_OF_PERICENTER": 239.4806, "MEAN_ANOMALY": 136.1937, "EPHEMERIS_TYPE": 0, "CLASSIFICATION_TYPE": "U", "NORAD_CAT_ID": 36274, "ELEMENT_SET_NO": 999, "REV_AT_EPOCH": 62939, "BSTAR": 0.0044809329, "MEAN_MOTION_DOT": 0.00010342, "MEAN_MOTION_DDOT": 0}, "tle": {"line1": "1 36274U 99025DXB 25343.48328142  .00010342  00000+0  44809-2 0  9992", "line2": "2 36274  99.1390  57.5181 0062256 239.4806 136.1937 14.23402311629395"}}, "geometry": {"type": "Point", "coordinates": [-1.8985383305902368, 79.83588994934657]}}, {"type": "Feature", "properties": {"norad_id": 36278, "name": "FENGYUN 1C DEB", "group": "fengyun-1c-debris", "lat": -66.53490120494946, "lon": -72.16967426072215, "alt_km": 797.2566609740152, "timestamp": "2025-12-13T18:50:04.719670+00:00", "meta": {"OBJECT_NAME": "FENGYUN 1C DEB", "OBJECT_ID": "1999-025DXF", "EPOCH": "2025-12-04T01:21:08.443872", "MEAN_MOTION": 14.17353569, "ECCENTRICITY": 0.00613363, "INCLINATION": 99.1236, "RA_OF_ASC_NODE": 256.1206, "ARG_OF_PERICENTER": 315.5831, "MEAN_ANOMALY": 44.0433, "EPHEMERIS_TYPE": 0, "CLASSIFICATION_TYPE": "U", "NORAD_CAT_ID": 36278, "ELEMENT_SET_NO": 999, "REV_AT_EPOCH": 93353, "BSTAR": 0.0008477729, "MEAN_MOTION_DOT": 1.7e-05, "MEAN_MOTION_DDOT": 0}, "tle": {"line1": "1 36278U 99025DXF 25338.05634773  .00001700  00000+0  84777-3 0  9990", "line2": "2 36278  99.1236 256.1206 0061336 315.5831  44.0433 14.17353569933530"}}, "geometry": {"type": "Point", "coordinates": [-72.16967426072215, -66.53490120494946]}}, {"type": "Feature", "properties": {"norad_id": 36279, "name": "FENGYUN 1C DEB", "group": "fengyun-1c-debris", "lat": -54.07627603100849, "lon": -22.25375520101858, "alt_km": 863.4174680515371, "timestamp": "2025-12-13T18:50:04.719681+00:00", "meta": {"OBJECT_NAME": "FENGYUN 1C DEB", "OBJECT_ID": "1999-025DXG", "EPOCH": "2025-12-13T03:49:01.258176", "MEAN_MOTION": 14.1472808, "ECCENTRICITY": 0.00629293, "INCLINATION": 98.5609, "RA_OF_ASC_NODE": 325.1462, "ARG_OF_PERICENTER": 54.1231, "MEAN_ANOMALY": 306.5764, "EPHEMERIS_TYPE": 0, "CLASSIFICATION_TYPE": "U", "NORAD_CAT_ID": 36279, "ELEMENT_SET_NO": 999, "REV_AT_EPOCH": 89045, "BSTAR": 0.00020141658, "MEAN_MOTION_DOT": 3.54e-06, "MEAN_MOTION_DDOT": 0}, "tle": {"line1": "1 36279U 99025DXG 25347.15904234  .00000354  00000+0  20142-3 0  9994", "line2": "2 36279  98.5609 325.1462 0062929  54.1231 306.5764 14.14728080890455"}}, "geometry": {"type": "Point", "coordinates": [-22.25375520101858, -54.07627603100849]}}, {"type": "Feature", "properties": {"norad_id": 36280, "name": "FENGYUN 1C DEB", "group": "fengyun-1c-debris", "lat": -35.106348690776606, "lon": 22.978990738586724, "alt_km": 872.5529255555721, "timestamp": "2025-12-13T18:50:04.719691+00:00", "meta": {"OBJECT_NAME": "FENGYUN 1C DEB", "OBJECT_ID": "1999-025DXH", "EPOCH": "2025-12-12T19:59:31.607808", "MEAN_MOTION": 14.0973952, "ECCENTRICITY": 0.00631457, "INCLINATION": 98.7676, "RA_OF_ASC_NODE": 15.8238, "ARG_OF_PERICENTER": 65.2439, "MEAN_ANOMALY": 112.369, "EPHEMERIS_TYPE": 0, "CLASSIFICATION_TYPE": "U", "NORAD_CAT_ID": 36280, "ELEMENT_SET_NO": 999, "REV_AT_EPOCH": 86355, "BSTAR": 0.0014735852, "MEAN_MOTION_DOT": 2.593e-05, "MEAN_MOTION_DDOT": 0}, "tle": {"line1": "1 36280U 99025DXH 25346.83300472  .00002593  00000+0  14736-2 0  9992", "line2": "2 36280  98.7676  15.8238 0063145  65.2439 112.3690 14.09739520863558"}}, "geometry": {"type": "Point", "coordinates": [22.978990738586724, -35.106348690776606]}}, {"type": "Feature", "properties": {"norad_id": 36281, "name": "FENGYUN 1C DEB", "group": "fengyun-1c-debris", "lat": 75.19280620160289, "lon": -128.42132184718878, "alt_km": 839.2323186293706, "timestamp": "2025-12-13T18:50:04.719702+00:00", "meta": {"OBJECT_NAME": "FENGYUN 1C DEB", "OBJECT_ID": "1999-025DXJ", "EPOCH": "2025-12-13T06:06:04.071456", "MEAN_MOTION": 13.60254182, "ECCENTRICITY": 0.02902308, "INCLINATION": 99.2579, "RA_OF_ASC_NODE": 269.1731, "ARG_OF_PERICENTER": 109.5244, "MEAN_ANOMALY": 253.7485, "EPHEMERIS_TYPE": 0, "CLASSIFICATION_TYPE": "U", "NORAD_CAT_ID": 36281, "ELEMENT_SET_NO": 999, "REV_AT_EPOCH": 84524, "BSTAR": 0.0042483761, "MEAN_MOTION_DOT": 4.168e-05, "MEAN_MOTION_DDOT": 0}, "tle": {"line1": "1 36281U 99025DXJ 25347.25421379  .00004168  00000+0  42484-2 0  9991", "line2": "2 36281  99.2579 269.1731 0290230 109.5244 253.7485 13.60254182845242"}}, "geometry": {"type": "Point", "coordinates": [-128.42132184718878, 75.19280620160289]}}, {"type": "Feature", "properties": {"norad_id": 36283, "name": "FENGYUN 1C DEB", "group": "fengyun-1c-debris", "lat": 77.02219534110583, "lon": 179.20424670058424, "alt_km": 510.90658339892525, "timestamp": "2025-12-13T18:50:04.719712+00:00", "meta": {"OBJECT_NAME": "FENGYUN 1C DEB", "OBJECT_ID": "1999-025DXL", "EPOCH": "2025-12-12T04:08:21.741504", "MEAN_MOTION": 15.06204113, "ECCENTRICITY": 0.00680236, "INCLINATION": 99.4211, "RA_OF_ASC_NODE": 311.1422, "ARG_OF_PERICENTER": 52.2537, "MEAN_ANOMALY": 308.4822, "EPHEMERIS_TYPE": 0, "CLASSIFICATION_TYPE": "U", "NORAD_CAT_ID": 36283, "ELEMENT_SET_NO": 999, "REV_AT_EPOCH": 66657, "BSTAR": 0.0025072504, "MEAN_MOTION_DOT": 0.00038819, "MEAN_MOTION_DDOT": 0}, "tle": {"line1": "1 36283U 99025DXL 25346.17247386  .00038819  00000+0  25073-2 0  9992", "line2": "2 36283  99.4211 311.1422 0068023  52.2537 308.4822 15.06204113666577"}}, "geometry": {"type": "Point", "coordinates": [179.20424670058424, 77.02219534110583]}}, {"type": "Feature", "properties": {"norad_id": 36644, "name": "FENGYUN 1C DEB", "group": "fengyun-1c-debris", "lat": -80.52891001485375, "lon": -116.40727269783343, "alt_km": 1033.22279779173, "timestamp": "2025-12-13T18:50:04.719723+00:00", "meta": {"OBJECT_NAME": "FENGYUN 1C DEB", "OBJECT_ID": "1999-025DXN", "EPOCH": "2025-12-06T15:56:19.275936", "MEAN_MOTION": 13.59167664, "ECCENTRICITY": 0.02857814, "INCLINATION": 98.4234, "RA_OF_ASC_NODE": 120.1104, "ARG_OF_PERICENTER": 196.1478, "MEAN_ANOMALY": 163.0413, "EPHEMERIS_TYPE": 0, "CLASSIFICATION_TYPE": "U", "NORAD_CAT_ID": 36644, "ELEMENT_SET_NO": 999, "REV_AT_EPOCH": 61485, "BSTAR": 0.0026178612, "MEAN_MOTION_DOT": 2.485e-05, "MEAN_MOTION_DDOT": 0}, "tle": {"line1": "1 36644U 99025DXN 25340.66411199  .00002485  00000+0  26179-2 0  9994", "line2": "2 36644  98.4234 120.1104 0285781 196.1478 163.0413 13.59167664614851"}}, "geometry": {"type": "Point", "coordinates": [-116.40727269783343, -80.52891001485375]}}, {"type": "Feature", "properties": {"norad_id": 36647, "name": "FENGYUN 1C DEB", "group": "fengyun-1c-debris", "lat": 10.265031059846018, "lon": -50.77309078073155, "alt_km": 1037.58751923025, "timestamp": "2025-12-13T18:50:04.719733+00:00", "meta": {"OBJECT_NAME": "FENGYUN 1C DEB", "OBJECT_ID": "1999-025DXR", "EPOCH": "2025-12-12T16:03:45.149184", "MEAN_MOTION": 13.88818292, "ECCENTRICITY": 0.02395033, "INCLINATION": 96.1208, "RA_OF_ASC_NODE": 127.3787, "ARG_OF_PERICENTER": 300.0828, "MEAN_ANOMALY": 57.6784, "EPHEMERIS_TYPE": 0, "CLASSIFICATION_TYPE": "U", "NORAD_CAT_ID": 36647, "ELEMENT_SET_NO": 999, "REV_AT_EPOCH": 30411, "BSTAR": 0.003742639, "MEAN_MOTION_DOT": 5.663e-05, "MEAN_MOTION_DDOT": 0}, "tle": {"line1": "1 36647U 99025DXR 25346.66927256  .00005663  00000+0  37426-2 0  9997", "line2": "2 36647  96.1208 127.3787 0239503 300.0828  57.6784 13.88818292304118"}}, "geometry": {"type": "Point", "coordinates": [-50.77309078073155, 10.265031059846018]}}, {"type": "Feature", "properties": {"norad_id": 36652, "name": "FENGYUN 1C DEB", "group": "fengyun-1c-debris", "lat": 66.23616115592725, "lon": -89.08090568230752, "alt_km": 828.3750638184847, "timestamp": "2025-12-13T18:50:04.719744+00:00", "meta": {"OBJECT_NAME": "FENGYUN 1C DEB", "OBJECT_ID": "1999-025DXW", "EPOCH": "2025-12-12T11:55:57.258336", "MEAN_MOTION": 14.2281347, "ECCENTRICITY": 0.00506117, "INCLINATION": 98.9405, "RA_OF_ASC_NODE": 68.664, "ARG_OF_PERICENTER": 353.9416, "MEAN_ANOMALY": 6.1143, "EPHEMERIS_TYPE": 0, "CLASSIFICATION_TYPE": "U", "NORAD_CAT_ID": 36652, "ELEMENT_SET_NO": 999, "REV_AT_EPOCH": 64321, "BSTAR": 0.0025683974, "MEAN_MOTION_DOT": 5.798e-05, "MEAN_MOTION_DDOT": 0}, "tle": {"line1": "1 36652U 99025DXW 25346.49719049  .00005798  00000+0  25684-2 0  9995", "line2": "2 36652  98.9405  68.6640 0050611 353.9416   6.1143 14.22813470643216"}}, "geometry": {"type": "Point", "coordinates": [-89.08090568230752, 66.23616115592725]}}]}